OSCAR 7 (AO-7)          
1 07530U 74089B   24366.95886542 -.00000029  00000+0  11122-3 0  9992
2 07530 101.9905   3.5441 0012384  67.1464 307.9019 12.53684506293828
PHASE 3B (AO-10)        
1 14129U 83058B   24366.09220930 -.00000083  00000+0  00000+0 0  9997
2 14129  27.2164 308.0831 6043467 329.3267   6.2135  2.05871509284510
UOSAT 2 (UO-11)         
1 14781U 84021B   25001.46443762  .00005672  00000+0  61730-3 0  9999
2 14781  97.7332 331.3050 0008969 133.5154 226.6809 14.88383516198966
LUSAT (LO-19)           
1 20442U 90005G   24366.87018394  .00000763  00000+0  29108-3 0  9995
2 20442  98.8952   2.5131 0011143 331.4527  28.6045 14.33814123826160
EYESAT A (AO-27)        
1 22825U 93061C   24366.42085017  .00000504  00000+0  20982-3 0  9998
2 22825  98.7625  60.9973 0007787 216.3024 143.7630 14.30694791630815
ITAMSAT (IO-26)         
1 22826U 93061D   24366.90481410  .00000605  00000+0  24660-3 0  9998
2 22826  98.7570  61.3569 0008585 199.0043 161.0820 14.31097894631172
RADIO ROSTO (RS-15)     
1 23439U 94085A   24366.89175039 -.00000061  00000+0 -52597-3 0  9999
2 23439  64.8171  84.0480 0145868 105.6743 256.0327 11.27579951235880
JAS-2 (FO-29)           
1 24278U 96046B   25001.19899540  .00000103  00000+0  13895-3 0  9993
2 24278  98.5889 275.9440 0350545  35.5441 326.8514 13.53228531401464
TECHSAT 1B (GO-32)      
1 25397U 98043D   24366.66108749  .00000459  00000+0  21912-3 0  9997
2 25397  98.9502 336.6298 0000882   1.0306 359.0874 14.24224065375524
ISS (ZARYA)             
1 25544U 98067A   24366.81307813  .00027763  00000+0  48311-3 0  9996
2 25544  51.6382  56.2039 0006091  28.0496 332.0820 15.50544003489205
PCSAT (NO-44)           
1 26931U 01043C   24366.73673751  .00000840  00000+0  34630-3 0  9999
2 26931  67.0494 181.0680 0006454 260.5488  99.4885 14.31561545214228
SAUDISAT 1C (SO-50)     
1 27607U 02058C   24366.87630414  .00005872  00000+0  77113-3 0  9994
2 27607  64.5563 333.1584 0037034  16.8171 343.4152 14.80640120185575
CUTE-1 (CO-55)          
1 27844U 03031E   24366.95551906  .00001393  00000+0  62873-3 0  9997
2 27844  98.6776  11.3005 0008725 293.8546  66.1718 14.23737601115920
CUBESAT XI-IV (CO-57)   
1 27848U 03031J   24365.49533462  .00001189  00000+0  54607-3 0  9995
2 27848  98.6804   9.9829 0008828 316.8669  43.1817 14.23107145115456
MOZHAYETS 4 (RS-22)     
1 27939U 03042A   25001.47391288  .00004829  00000+0  78545-3 0  9993
2 27939  98.3084 167.3221 0012119 149.1104 295.4548 14.71497265137420
CUBESAT XI-V            
1 28895U 05043F   24366.33804128  .00005903  00000+0  99531-3 0  9990
2 28895  98.2250 143.0623 0016001  94.5347 265.7687 14.69783433 23395
CUTE-1.7+APD II (CO-65) 
1 32785U 08021C   24366.82559545  .00013768  00000+0  10726-2 0  9992
2 32785  97.7702 331.3677 0011784  53.0196 307.2105 15.01274184905087
SEEDS II (CO-66)        
1 32791U 08021J   24366.66818929  .00027992  00000+0  16270-2 0  9999
2 32791  97.7126 338.0770 0005490  23.8385 336.3098 15.12036772906271
YUBILEINY (RS-30)       
1 32953U 08025A   24366.89191769  .00000037  00000+0  19673-3 0  9996
2 32953  82.5046 326.5119 0020382  36.0335 324.2114 12.43156249753550
KKS-1 (KISEKI)          
1 33499U 09002H   24366.88961439  .00006002  00000+0  78931-3 0  9996
2 33499  98.1284 270.8337 0007376 204.9119 155.1737 14.80561395857350
SWISSCUBE               
1 35932U 09051B   25001.26010416  .00005097  00000+0  10593-2 0  9995
2 35932  98.4476 254.4284 0008251  67.7547 292.4527 14.60516765811498
BEESAT-1                
1 35933U 09051C   24366.62807071  .00004037  00000+0  85010-3 0  9990
2 35933  98.4407 254.4097 0006696  80.7718 279.4238 14.60045994811429
ITUPSAT1                
1 35935U 09051E   25001.13320627  .00003846  00000+0  83060-3 0  9992
2 35935  98.4504 254.5880 0008920  86.2111 274.0107 14.58904949811146
XIWANG-1 (HOPE-1)       
1 36122U 09072B   25001.32174305 -.00000025  00000+0  50401-4 0  9996
2 36122 100.3263 320.6335 0007695  14.3150 345.8180 13.16416372723122
O/OREOS (USA 219)       
1 37224U 10062C   25001.05864521  .00007224  00000+0  75516-3 0  9997
2 37224  71.9700 202.5124 0015191 351.7870   8.3047 14.89855313 37276
JUGNU                   
1 37839U 11058B   24366.93820458  .00001034  00000+0  40180-3 0  9998
2 37839  19.9619 301.3644 0018489 319.3417 104.0665 14.13469675683629
SRMSAT                  
1 37841U 11058D   24366.83519545  .00000879  00000+0  33488-3 0  9991
2 37841  19.9731  41.1558 0011969 107.4573  50.1205 14.11325593682511
STRAND-1                
1 39090U 13009E   24366.98166214  .00001379  00000+0  48346-3 0  9999
2 39090  98.3766 189.8964 0009299  27.9918 332.1767 14.36553485620654
ZACUBE-1 (TSHEPISOSAT)  
1 39417U 13066B   24366.85670806  .00012228  00000+0  11367-2 0  9995
2 39417  97.7607 319.2531 0045169 223.8959 135.8669 14.93714349601043
GOMX-1                  
1 39430U 13066Q   25001.43651783  .00009019  00000+0  14321-2 0  9991
2 39430  97.7021 229.7695 0135130 341.9334  17.7093 14.66345853592072
CUBEBUG-2 (LO-74)       
1 39440U 13066AA  24366.58269841  .00014506  00000+0  15499-2 0  9995
2 39440  97.8344 306.7065 0065123 348.9371  11.0409 14.87312040597631
FUNCUBE-1 (AO-73)       
1 39444U 13066AE  25001.15382328  .00019468  00000+0  16180-2 0  9995
2 39444  97.7441 323.3670 0042444 198.4055 161.5634 14.98052602600270
UWE-3                   
1 39446U 13066AG  24366.82204350  .00013531  00000+0  13607-2 0  9998
2 39446  97.8065 313.1254 0054330 289.3921  70.1429 14.90232085598099
UNISAT-6                
1 40012U 14033C   24366.71095640  .00009150  00000+0  11033-2 0  9995
2 40012  97.7192 161.7820 0050136  20.8517 339.4727 14.83132651567082
DUCHIFAT-1              
1 40021U 14033M   24366.41814543  .00034985  00000+0  16974-2 0  9996
2 40021  98.0991   2.0657 0011499 138.7454 221.4649 15.18350900573938
QB50P1                  
1 40025U 14033R   25001.20472976  .00023502  00000+0  16138-2 0  9999
2 40025  98.0671 335.6318 0009871 229.7546 130.2817 15.05938010573125
XW-2C                   
1 40906U 15049H   24365.98391834  .00219446  00000+0  13553-2 0  9997
2 40906  97.4502  31.4021 0001910 336.0650  24.0526 15.76497982515056
LILACSAT-2              
1 40908U 15049K   25001.09359109  .00023838  00000+0  74031-3 0  9995
2 40908  97.5172  18.1207 0011371  21.0717 339.0991 15.33304033513743
FOX-1A (AO-85)          
1 40967U 15058D   25001.07932343  .00014613  00000+0  12524-2 0  9994
2 40967  64.7767 127.2080 0182443 244.7605 113.4498 14.85715402 34357
CAS-2T & KS-1Q          
1 41847U 16066G   24366.86620624  .00003684  00000+0  53926-3 0  9996
2 41847  98.4403  76.6670 0348117 301.4380  55.3208 14.42628708427984
ZHUHAI-1 02 (CAS-4B)    
1 42759U 17034B   25001.50342233  .00069958  00000+0  15304-2 0  9993
2 42759  43.0109 174.8533 0016553 264.0549  95.8422 15.43113126417871
ZHUHAI-1 01 (CAS-4A)    
1 42761U 17034D   25001.48020710  .00081635  00000+0  17603-2 0  9996
2 42761  43.0148 173.0772 0017553 271.1706  88.7141 15.43458014417886
RADFXSAT (FOX-1B)       
1 43017U 17073E   25001.37894640  .00028469  00000+0  15593-2 0  9995
2 43017  97.5471 236.3683 0189306 348.1936  11.4879 15.00078577385301
DIWATA-2B               
1 43678U 18084H   25001.51307768  .00005194  00000+0  45642-3 0  9996
2 43678  98.0872 171.8355 0009624  92.7944 267.4378 14.96990675336577
ES'HAIL 2               
1 43700U 18090A   24366.91369142  .00000165  00000+0  00000+0 0  9998
2 43700   0.0181  28.8987 0002384 296.8898 129.7570  1.00270398 22347
FOX-1CLIFF (AO-95)      
1 43770U 18099N   24366.61096727  .00020614  00000+0  11884-2 0  9993
2 43770  97.5187  60.7822 0013121  51.2838 308.9564 15.12334322332335
ITASAT                  
1 43786U 18099AE  24366.91444001  .00016733  00000+0  10470-2 0  9992
2 43786  97.4823  58.9532 0016338  40.6366 319.6079 15.09365872332347
JY1SAT (JO-97)          
1 43803U 18099AX  24366.41083520  .00021867  00000+0  11750-2 0  9998
2 43803  97.4932  61.3577 0008120 353.9136   6.1996 15.14885314332474
UWE-4                   
1 43880U 18111E   24366.48853797  .00030335  00000+0  14714-2 0  9999
2 43880  97.6005 271.7321 0016300  52.9018 307.3703 15.18329596327273
DUCHIFAT-3              
1 44854U 19089C   24366.88183096  .00055699  00000+0  18527-2 0  9994
2 44854  36.9504 277.8154 0012599 303.1274  56.8268 15.30078326278416
TIANYAN 01              
1 44881U 19093C   25001.50507609  .00004083  00000+0  48486-3 0  9994
2 44881  97.8110  80.4229 0014863  38.2470 321.9796 14.84926670272469
RS-44 & BREEZE-KM R/B   
1 44909U 19096E   24366.67458053  .00000024  00000+0  60283-4 0  9998
2 44909  82.5227 333.5412 0216674 309.7032  48.5140 12.79737481234230
SALSAT                  
1 46495U 20068K   24366.60716502  .00017341  00000+0  83756-3 0  9999
2 46495  97.8422 331.9139 0012824   5.2027 354.9337 15.18649024234210
LEDSAT                  
1 49069U 21073D   25001.45634954  .00069356  00000+0  17251-2 0  9995
2 49069  97.4129  78.8713 0013255 299.6842  60.3084 15.39947023186797
XW-3 (CAS-9)            
1 50466U 21131B   25001.50317279  .00002343  00000+0  75154-3 0  9997
2 50466  98.5192  91.6554 0003239 246.4070 113.6778 14.40407964158542
GREENCUBE               
1 53106U 22080B   24357.45145358 -.00000003  00000+0  00000+0 0  9995
2 53106  70.1377 127.1156 0008284  64.6124 295.5392  6.42557665 57362
CAS-5A (FO-118)         
1 54684U 22167C   25001.54316492  .00251242  00000+0  27170-2 0  9991
2 54684  97.6127 161.0428 0003781 173.8464 186.2841 15.62772079114872
STRATOSAT-TK 1 (RS52S)  
1 57167U 23091B   25001.55856738  .00072852  00000+0  28382-2 0  9994
2 57167  97.5817  61.4430 0012253 146.7969 213.4040 15.25616573 83655
UMKA 1 (RS40S)          
1 57172U 23091G   25001.51303983  .00019443  00000+0  11253-2 0  9991
2 57172  97.5839  57.8468 0015856 158.1973 201.9936 15.12172938 83417
CUBESX-HSE 3 (RS42S)    
1 57178U 23091N   25001.43505363  .00028400  00000+0  14883-2 0  9999
2 57178  97.5876  58.9757 0015755 150.8747 209.3368 15.15637810 83467
